IRIDIUM 171             
1 43929U 19002H   25308.43693269  .00000350  00000+0  11804-3 0  9993
2 43929  86.3946  87.8131 0001815  97.6640 262.4762 14.34217612356745
IRIDIUM 170             
1 43930U 19002J   25308.32798737  .00001306  00000+0  20315-3 0  9998
2 43930  86.6060  87.5805 0002282  90.3632 269.7847 14.72259675366171
IRIDIUM 167             
1 43931U 19002K   25308.43058913 -.00000021  00000+0 -14662-4 0  9990
2 43931  86.3937  87.5548 0001488  94.7624 265.3742 14.34217122356749
IRIDIUM 181             
1 56726U 23068S   25308.47927432  .00000382  00000+0  10757-3 0  9996
2 56726  86.4515 150.7054 0002124 102.8832 257.2606 14.43324558130025
IRIDIUM 177             
1 56727U 23068T   25308.41204190  .00001800  00000+0  23341-3 0  9999
2 56727  86.1950  75.5297 0002142  85.8726 274.2740 14.80231845133119
IRIDIUM 174             
1 56728U 23068U   25308.38360084  .00001341  00000+0  20873-3 0  9998
2 56728  86.6069  87.6822 0002575  84.5694 275.5816 14.72256225132942
IRIDIUM 178             
1 56729U 23068V   25308.46873752  .00000589  00000+0  74005-4 0  9999
2 56729  86.6509 119.2924 0001943  89.8275 270.3169 14.80234444133121
IRIDIUM 179             
1 56730U 23068W   25308.46335897  .00000416  00000+0  51300-4 0  9996
2 56730  86.6765 127.6007 0001632  96.2925 263.8482 14.80235128133126
